{
  "links" : {
    "next" : "https://api.nasa.gov/neo/rest/v1/feed?start_date=2002-04-09&end_date=2002-04-09&detailed=true&api_key=t0TVs3DtDT2H8Oy2Zy8m2eVrNsAVKAexjcZXUckd",
    "prev" : "https://api.nasa.gov/neo/rest/v1/feed?start_date=2002-04-07&end_date=2002-04-07&detailed=true&api_key=t0TVs3DtDT2H8Oy2Zy8m2eVrNsAVKAexjcZXUckd",
    "self" : "https://api.nasa.gov/neo/rest/v1/feed?start_date=2002-04-08&end_date=2002-04-08&detailed=true&api_key=t0TVs3DtDT2H8Oy2Zy8m2eVrNsAVKAexjcZXUckd"
  },
  "element_count" : 4,
  "near_earth_objects" : {
    "2002-04-08" : [ {
      "links" : {
        "self" : "https://api.nasa.gov/neo/rest/v1/neo/3092296?api_key=t0TVs3DtDT2H8Oy2Zy8m2eVrNsAVKAexjcZXUckd"
      },
      "neo_reference_id" : "3092296",
      "name" : "(2001 GO2)",
      "nasa_jpl_url" : "http://ssd.jpl.nasa.gov/sbdb.cgi?sstr=3092296",
      "absolute_magnitude_h" : 24.3,
      "estimated_diameter" : {
        "kilometers" : {
          "estimated_diameter_min" : 0.0366906138,
          "estimated_diameter_max" : 0.0820427065
        },
        "meters" : {
          "estimated_diameter_min" : 36.6906137531,
          "estimated_diameter_max" : 82.0427064882
        },
        "miles" : {
          "estimated_diameter_min" : 0.0227984834,
          "estimated_diameter_max" : 0.0509789586
        },
        "feet" : {
          "estimated_diameter_min" : 120.3760332259,
          "estimated_diameter_max" : 269.1689931548
        }
      },
      "is_potentially_hazardous_asteroid" : false,
      "close_approach_data" : [ {
        "close_approach_date" : "2002-04-08",
        "epoch_date_close_approach" : 1018249200000,
        "relative_velocity" : {
          "kilometers_per_second" : "6.439325187",
          "kilometers_per_hour" : "23181.5706732143",
          "miles_per_hour" : "14404.1265108092"
        },
        "miss_distance" : {
          "astronomical" : "0.0483954159",
          "lunar" : "18.8258171082",
          "kilometers" : "7239851.5",
          "miles" : "4498635"
        },
        "orbiting_body" : "Earth"
      } ],
      "orbital_data" : {
        "orbit_id" : "12",
        "orbit_determination_date" : "2017-04-06 09:16:26",
        "orbit_uncertainty" : "7",
        "minimum_orbit_intersection" : ".00336216",
        "jupiter_tisserand_invariant" : "6.033",
        "epoch_osculation" : "2458000.5",
        "eccentricity" : ".1682252090459494",
        "semi_major_axis" : "1.006682573148335",
        "inclination" : "4.625123200742138",
        "ascending_node_longitude" : "193.5434227412754",
        "orbital_period" : "368.9242921416832",
        "perihelion_distance" : ".8373331868375422",
        "perihelion_argument" : "265.4699970089685",
        "aphelion_distance" : "1.176031959459128",
        "perihelion_time" : "2457825.357761166558",
        "mean_anomaly" : "170.905541660089",
        "mean_motion" : ".9758099633670752",
        "equinox" : "J2000"
      }
    }, {
      "links" : {
        "self" : "https://api.nasa.gov/neo/rest/v1/neo/3601557?api_key=t0TVs3DtDT2H8Oy2Zy8m2eVrNsAVKAexjcZXUckd"
      },
      "neo_reference_id" : "3601557",
      "name" : "(2012 FA14)",
      "nasa_jpl_url" : "http://ssd.jpl.nasa.gov/sbdb.cgi?sstr=3601557",
      "absolute_magnitude_h" : 23.1,
      "estimated_diameter" : {
        "kilometers" : {
          "estimated_diameter_min" : 0.063760979,
          "estimated_diameter_max" : 0.1425738833
        },
        "meters" : {
          "estimated_diameter_min" : 63.7609789875,
          "estimated_diameter_max" : 142.5738833281
        },
        "miles" : {
          "estimated_diameter_min" : 0.0396192233,
          "estimated_diameter_max" : 0.0885912765
        },
        "feet" : {
          "estimated_diameter_min" : 209.1895703015,
          "estimated_diameter_max" : 467.7620993781
        }
      },
      "is_potentially_hazardous_asteroid" : false,
      "close_approach_data" : [ {
        "close_approach_date" : "2002-04-08",
        "epoch_date_close_approach" : 1018249200000,
        "relative_velocity" : {
          "kilometers_per_second" : "13.1623518606",
          "kilometers_per_hour" : "47384.4666982698",
          "miles_per_hour" : "29442.8648770444"
        },
        "miss_distance" : {
          "astronomical" : "0.2938389388",
          "lunar" : "114.303352356",
          "kilometers" : "43957680",
          "miles" : "27314036"
        },
        "orbiting_body" : "Earth"
      } ],
      "orbital_data" : {
        "orbit_id" : "25",
        "orbit_determination_date" : "2017-04-05 04:44:30",
        "orbit_uncertainty" : "0",
        "minimum_orbit_intersection" : ".028754",
        "jupiter_tisserand_invariant" : "4.678",
        "epoch_osculation" : "2458000.5",
        "eccentricity" : ".283174028104508",
        "semi_major_axis" : "1.414064529436694",
        "inclination" : "3.286881857930199",
        "ascending_node_longitude" : "293.8110194111193",
        "orbital_period" : "614.1893331733105",
        "perihelion_distance" : "1.013638180636399",
        "perihelion_argument" : "312.9042997503466",
        "aphelion_distance" : "1.814490878236988",
        "perihelion_time" : "2457921.271949307761",
        "mean_anomaly" : "46.4386089251047",
        "mean_motion" : ".586138476453182",
        "equinox" : "J2000"
      }
    }, {
      "links" : {
        "self" : "https://api.nasa.gov/neo/rest/v1/neo/3772698?api_key=t0TVs3DtDT2H8Oy2Zy8m2eVrNsAVKAexjcZXUckd"
      },
      "neo_reference_id" : "3772698",
      "name" : "(2017 FH90)",
      "nasa_jpl_url" : "http://ssd.jpl.nasa.gov/sbdb.cgi?sstr=3772698",
      "absolute_magnitude_h" : 20.732,
      "estimated_diameter" : {
        "kilometers" : {
          "estimated_diameter_min" : 0.1897382875,
          "estimated_diameter_max" : 0.4242677089
        },
        "meters" : {
          "estimated_diameter_min" : 189.7382875473,
          "estimated_diameter_max" : 424.2677088902
        },
        "miles" : {
          "estimated_diameter_min" : 0.1178978695,
          "estimated_diameter_max" : 0.2636276505
        },
        "feet" : {
          "estimated_diameter_min" : 622.5009633168,
          "estimated_diameter_max" : 1391.9544700354
        }
      },
      "is_potentially_hazardous_asteroid" : false,
      "close_approach_data" : [ {
        "close_approach_date" : "2002-04-08",
        "epoch_date_close_approach" : 1018249200000,
        "relative_velocity" : {
          "kilometers_per_second" : "18.9880795413",
          "kilometers_per_hour" : "68357.0863486663",
          "miles_per_hour" : "42474.4351259255"
        },
        "miss_distance" : {
          "astronomical" : "0.3808081983",
          "lunar" : "148.1343841553",
          "kilometers" : "56968096",
          "miles" : "35398336"
        },
        "orbiting_body" : "Earth"
      } ],
      "orbital_data" : {
        "orbit_id" : "23",
        "orbit_determination_date" : "2017-09-21 06:19:47",
        "orbit_uncertainty" : "4",
        "minimum_orbit_intersection" : ".360953",
        "jupiter_tisserand_invariant" : "4.022",
        "epoch_osculation" : "2458000.5",
        "eccentricity" : ".3313493577857065",
        "semi_major_axis" : "1.662725417331485",
        "inclination" : "33.19042336656026",
        "ascending_node_longitude" : "182.8433269456258",
        "orbital_period" : "783.1216497854732",
        "perihelion_distance" : "1.111782418124726",
        "perihelion_argument" : "84.00207930109499",
        "aphelion_distance" : "2.213668416538243",
        "perihelion_time" : "2457922.498265587932",
        "mean_anomaly" : "35.8572954738727",
        "mean_motion" : ".4596986944475583",
        "equinox" : "J2000"
      }
    }, {
      "links" : {
        "self" : "https://api.nasa.gov/neo/rest/v1/neo/3752903?api_key=t0TVs3DtDT2H8Oy2Zy8m2eVrNsAVKAexjcZXUckd"
      },
      "neo_reference_id" : "3752903",
      "name" : "(2016 JH12)",
      "nasa_jpl_url" : "http://ssd.jpl.nasa.gov/sbdb.cgi?sstr=3752903",
      "absolute_magnitude_h" : 22.3,
      "estimated_diameter" : {
        "kilometers" : {
          "estimated_diameter_min" : 0.0921626549,
          "estimated_diameter_max" : 0.2060819612
        },
        "meters" : {
          "estimated_diameter_min" : 92.1626548503,
          "estimated_diameter_max" : 206.0819612321
        },
        "miles" : {
          "estimated_diameter_min" : 0.057267201,
          "estimated_diameter_max" : 0.1280533543
        },
        "feet" : {
          "estimated_diameter_min" : 302.370924539,
          "estimated_diameter_max" : 676.1219416887
        }
      },
      "is_potentially_hazardous_asteroid" : false,
      "close_approach_data" : [ {
        "close_approach_date" : "2002-04-08",
        "epoch_date_close_approach" : 1018249200000,
        "relative_velocity" : {
          "kilometers_per_second" : "11.1215462996",
          "kilometers_per_hour" : "40037.5666784318",
          "miles_per_hour" : "24877.7869174956"
        },
        "miss_distance" : {
          "astronomical" : "0.2095244506",
          "lunar" : "81.5050125122",
          "kilometers" : "31344412",
          "miles" : "19476514"
        },
        "orbiting_body" : "Earth"
      } ],
      "orbital_data" : {
        "orbit_id" : "13",
        "orbit_determination_date" : "2017-06-15 06:19:18",
        "orbit_uncertainty" : "3",
        "minimum_orbit_intersection" : ".204617",
        "jupiter_tisserand_invariant" : "6.219",
        "epoch_osculation" : "2458000.5",
        "eccentricity" : ".3346898740686247",
        "semi_major_axis" : ".9544155606965276",
        "inclination" : "18.03497987336542",
        "ascending_node_longitude" : "218.9212047411505",
        "orbital_period" : "340.5686705205546",
        "perihelion_distance" : ".6349823368778709",
        "perihelion_argument" : "193.3561404390003",
        "aphelion_distance" : "1.273848784515184",
        "perihelion_time" : "2458048.941342772249",
        "mean_anomaly" : "308.7948102467723",
        "mean_motion" : "1.057055540222607",
        "equinox" : "J2000"
      }
    } ]
  }
}